ONEWEB-0348             
1 49213U 21083AD  24091.47097318 -.00000270  00000+0 -69547-3 0  9992
2 49213  87.9147  75.1719 0002576  94.6295 265.5132 13.20770965130190
ONEWEB-0350             
1 49214U 21083AE  24091.56118850 -.00000251  00000+0 -72104-3 0  9990
2 49214  87.8910 120.9943 0002280 102.3310 257.8074 13.13469477124910
ONEWEB-0351             
1 49215U 21083AF  24091.46467485  .00000052  00000+0  96510-4 0  9996
2 49215  87.9143  75.1759 0001019  70.5767 289.5476 13.20770535130156
ONEWEB-0352             
1 49216U 21083AG  24091.54214660  .00000256  00000+0  66687-3 0  9998
2 49216  87.8912 121.0269 0001695  96.3332 263.7990 13.13469522125007
ONEWEB-0354             
1 49217U 21083AH  24091.48991074  .00000041  00000+0  68354-4 0  9999
2 49217  87.9147  75.1528 0001981  97.4974 262.6384 13.20774009130196
ONEWEB-0355             
1 49218U 21083AJ  24091.57228628 -.00000274  00000+0 -78576-3 0  9994
2 49218  87.8913 121.0200 0001908  99.3921 260.7424 13.13471210124880
ONEWEB-0357             
1 49219U 21083AK  24091.48677570  .00000019  00000+0  15002-4 0  9990
2 49219  87.9143  75.1743 0001986  88.5936 271.5425 13.20770881130196
